NORAD_CAT_ID,OBJECT_NAME,OBJECT_TYPE,EPOCH,MEAN_MOTION,ECCENTRICITY,INCLINATION,RA_OF_ASC_NODE,ARG_OF_PERICENTER,MEAN_ANOMALY,BSTAR,MEAN_MOTION_DOT,MEAN_MOTION_DDOT,TLE_LINE0,TLE_LINE1,TLE_LINE2,SEMIMAJOR_AXIS,PERIOD,APOGEE,PERIGEE,DECAYED
54062.0,STARLINK-5170,PAYLOAD,2024-02-25 08:07:43,15.08850615,0.0001602,53.2149,81.1216,88.6363,271.4813,0.00022721,3.331e-05,0.0,0 STARLINK-5170,1 54062U 22136M   24056.33869661  .00003331  00000-0  22721-3 0  9997,2 54062  53.2149  81.1216 0001602  88.6363 271.4813 15.08850615 74629,6917.848,95.437,540.821,538.605,0.0
54062.0,STARLINK-5170,PAYLOAD,2024-02-26 01:36:58,15.08843184,0.0001627,53.2151,77.8498,89.432,270.6858,0.00022393,3.278e-05,0.0,0 STARLINK-5170,1 54062U 22136M   24057.06734003  .00003278  00000-0  22393-3 0  9994,2 54062  53.2151  77.8498 0001627  89.4320 270.6858 15.08843184 75214,6917.871,95.437,540.861,538.61,0.0
54062.0,STARLINK-5170,PAYLOAD,2024-02-26 07:58:30,15.08848258,0.0001629,53.2154,76.6603,89.5513,270.5666,0.00022579,3.308e-05,0.0,0 STARLINK-5170,1 54062U 22136M   24057.33229685  .00003308  00000-0  22579-3 0  9999,2 54062  53.2154  76.6603 0001629  89.5513 270.5666 15.08848258 74772,6917.855,95.437,540.847,538.593,0.0
54062.0,STARLINK-5170,PAYLOAD,2024-02-27 01:27:45,15.08836912,0.0001766,53.2155,73.3897,90.7136,269.4059,-4.6626e-05,-1.03e-05,0.0,0 STARLINK-5170,1 54062U 22136M   24058.06094248 -.00001030  00000-0 -46626-4 0  9997,2 54062  53.2155  73.3897 0001766  90.7136 269.4059 15.08836912 75362,6917.89,95.438,540.977,538.533,0.0
54062.0,STARLINK-5170,PAYLOAD,2024-02-27 11:00:04,15.08838879,0.0001724,53.2161,71.6072,87.2727,272.8463,-4.3415e-05,-9.79e-06,0.0,0 STARLINK-5170,1 54062U 22136M   24058.45838478 -.00000979  00000-0 -43415-4 0  9995,2 54062  53.2161  71.6072 0001724  87.2727 272.8463 15.08838879 74940,6917.884,95.438,540.941,538.556,0.0
54062.0,STARLINK-5170,PAYLOAD,2024-02-27 17:21:37,15.08837867,0.0001705,53.2164,70.4174,86.4111,273.7076,-5.7206e-05,-1.198e-05,0.0,0 STARLINK-5170,1 54062U 22136M   24058.72334596 -.00001198  00000-0 -57206-4 0  9994,2 54062  53.2164  70.4174 0001705  86.4111 273.7076 15.08837867 74980,6917.887,95.438,540.931,538.572,0.0
54062.0,STARLINK-5170,PAYLOAD,2024-02-28 04:29:18,15.0883855,0.0001683,53.2158,68.3349,82.7576,277.3608,2.6672e-05,1.36e-06,0.0,0 STARLINK-5170,1 54062U 22136M   24059.18702443  .00000136  00000-0  26672-4 0  9997,2 54062  53.2158  68.3349 0001683  82.7576 277.3608 15.08838550 75535,6917.885,95.438,540.914,538.586,0.0
54062.0,STARLINK-5170,PAYLOAD,2024-02-28 07:40:05,15.0884,0.0001706,53.2163,67.7404,82.976,277.1426,3.5919e-05,2.84e-06,0.0,0 STARLINK-5170,1 54062U 22136M   24059.31950325  .00000284  00000-0  35919-4 0  9994,2 54062  53.2163  67.7404 0001706  82.9760 277.1426 15.08840000 75077,6917.88,95.438,540.926,538.565,0.0
54062.0,STARLINK-5170,PAYLOAD,2024-02-28 17:12:24,15.08835802,0.0001658,53.2165,65.9554,82.9233,277.1948,7.7421e-05,9.44e-06,0.0,0 STARLINK-5170,1 54062U 22136M   24059.71694529  .00000944  00000-0  77421-4 0  9996,2 54062  53.2165  65.9554 0001658  82.9233 277.1948 15.08835802 75136,6917.893,95.438,540.905,538.611,0.0
54062.0,STARLINK-5170,PAYLOAD,2024-02-29 09:06:15,15.08837516,0.0001753,53.2173,62.9828,85.7119,274.4073,0.00014512,2.022e-05,0.0,0 STARLINK-5170,1 54062U 22136M   24060.37934551  .00002022  00000-0  14512-3 0  9992,2 54062  53.2173  62.9828 0001753  85.7119 274.4073 15.08837516 75713,6917.888,95.438,540.966,538.54,0.0
54062.0,STARLINK-5170,PAYLOAD,2024-02-29 17:03:11,15.08838323,0.0001785,53.2187,61.4964,86.2805,273.8391,4.1945e-05,3.79e-06,0.0,0 STARLINK-5170,1 54062U 22136M   24060.71054833  .00000379  00000-0  41945-4 0  9990,2 54062  53.2187  61.4964 0001785  86.2805 273.8391 15.08838323 75281,6917.886,95.438,540.985,538.516,0.0
54062.0,STARLINK-5170,PAYLOAD,2024-03-01 04:10:53,15.08834911,0.0001918,53.2191,59.4144,87.8209,272.3003,5.2976e-07,-2.8e-06,0.0,0 STARLINK-5170,1 54062U 22136M   24061.17423357 -.00000280  00000-0  52976-6 0  9992,2 54062  53.2191  59.4144 0001918  87.8209 272.3003 15.08834911 75830,6917.896,95.438,541.088,538.434,0.0
54062.0,STARLINK-5170,PAYLOAD,2024-03-01 08:57:02,15.08837866,0.0001884,53.2185,58.5203,85.6323,274.4885,3.3651e-05,2.47e-06,0.0,0 STARLINK-5170,1 54062U 22136M   24061.37295114  .00000247  00000-0  33651-4 0  9991,2 54062  53.2185  58.5203 0001884  85.6323 274.4885 15.08837866 75387,6917.887,95.438,541.055,538.449,0.0
54062.0,STARLINK-5170,PAYLOAD,2024-03-01 16:53:58,15.08838947,0.0001868,53.2186,57.035,86.9541,273.1665,4.6528e-05,4.52e-06,0.0,0 STARLINK-5170,1 54062U 22136M   24061.70415037  .00000452  00000-0  46528-4 0  9991,2 54062  53.2186  57.0350 0001868  86.9541 273.1665 15.08838947 75432,6917.884,95.438,541.041,538.456,0.0
54062.0,STARLINK-5170,PAYLOAD,2024-03-02 04:01:40,15.08841858,0.0001759,53.2187,54.9534,88.0495,272.0699,0.00010367,1.362e-05,0.0,0 STARLINK-5170,1 54062U 22136M   24062.16782644  .00001362  00000-0  10367-3 0  9995,2 54062  53.2187  54.9534 0001759  88.0495 272.0699 15.08841858 75983,6917.875,95.437,540.957,538.523,0.0
54062.0,STARLINK-5170,PAYLOAD,2024-03-02 07:12:26,15.08846264,0.000174,53.2179,54.359,89.5657,270.5534,8.1688e-05,1.012e-05,0.0,0 STARLINK-5170,1 54062U 22136M   24062.30030436  .00001012  00000-0  81688-4 0  9993,2 54062  53.2179  54.3590 0001740  89.5657 270.5534 15.08846264 75523,6917.861,95.437,540.93,538.523,0.0
54062.0,STARLINK-5170,PAYLOAD,2024-03-03 05:27:50,15.08842402,0.0001744,53.2179,50.1959,87.7558,272.3634,5.5809e-05,6e-06,0.0,0 STARLINK-5170,1 54062U 22136M   24063.22766732  .00000600  00000-0  55809-4 0  9998,2 54062  53.2179  50.1959 0001744  87.7558 272.3634 15.08842402 76140,6917.873,95.437,540.945,538.532,0.0
54062.0,STARLINK-5170,PAYLOAD,2024-03-04 05:18:36,15.08851053,0.0001598,53.2185,45.7379,95.3465,264.7709,3.1662e-05,2.16e-06,0.0,0 STARLINK-5170,1 54062U 22136M   24064.22126127  .00000216  00000-0  31662-4 0  9991,2 54062  53.2185  45.7379 0001598  95.3465 264.7709 15.08851053 75815,6917.847,95.437,540.817,538.606,0.0
54062.0,STARLINK-5170,PAYLOAD,2024-03-05 03:34:02,15.08831611,0.0001583,53.218,41.5738,98.6782,261.4389,-6.151e-06,-3.86e-06,0.0,0 STARLINK-5170,1 54062U 22136M   24065.14863601 -.00000386  00000-0 -61510-5 0  9994,2 54062  53.2180  41.5738 0001583  98.6782 261.4389 15.08831611 76430,6917.906,95.438,540.866,538.676,0.0
54062.0,STARLINK-5170,PAYLOAD,2024-03-05 05:09:25,15.08832191,0.0001522,53.218,41.2762,87.4849,272.6317,1.8307e-07,-2.85e-06,0.0,0 STARLINK-5170,1 54062U 22136M   24065.21487635 -.00000285  00000-0  18307-6 0  9995,2 54062  53.2180  41.2762 0001522  87.4849 272.6317 15.08832191 75963,6917.904,95.438,540.822,538.716,0.0
54062.0,STARLINK-5170,PAYLOAD,2024-03-06 03:24:48,15.08843534,0.0001512,53.2179,37.1122,96.8248,263.2916,8.5292e-05,1.07e-05,0.0,0 STARLINK-5170,1 54062U 22136M   24066.14223033  .00001070  00000-0  85292-4 0  9995,2 54062  53.2179  37.1122 0001512  96.8248 263.2916 15.08843534 76584,6917.87,95.437,540.781,538.689,0.0
54062.0,STARLINK-5170,PAYLOAD,2024-03-06 05:00:11,15.08846247,0.0001456,53.2182,36.816,99.1405,260.9752,0.00010767,1.426e-05,0.0,0 STARLINK-5170,1 54062U 22136M   24066.20846814  .00001426  00000-0  10767-3 0  9999,2 54062  53.2182  36.8160 0001456  99.1405 260.9752 15.08846247 76119,6917.861,95.437,540.734,538.719,0.0
54062.0,STARLINK-5170,PAYLOAD,2024-03-07 03:15:36,15.08832737,0.0001399,53.2191,32.6567,105.9281,254.1865,8.2845e-05,1.031e-05,0.0,0 STARLINK-5170,1 54062U 22136M   24067.13584074  .00001031  00000-0  82845-4 0  9998,2 54062  53.2191  32.6567 0001399 105.9281 254.1865 15.08832737 76735,6917.903,95.438,540.735,538.8,0.0
54062.0,STARLINK-5170,PAYLOAD,2024-03-07 14:23:17,15.08848081,0.000131,53.2191,30.5707,93.0723,267.0419,0.00017901,2.563e-05,0.0,0 STARLINK-5170,1 54062U 22136M   24067.59950965  .00002563  00000-0  17901-3 0  9995,2 54062  53.2191  30.5707 0001310  93.0723 267.0419 15.08848081 76321,6917.856,95.437,540.627,538.814,0.0
54062.0,STARLINK-5170,PAYLOAD,2024-03-08 06:17:09,15.08842127,0.0001699,53.2202,27.5967,105.7406,254.3773,2.5251e-05,1.14e-06,0.0,0 STARLINK-5170,1 54062U 22136M   24068.26191792  .00000114  00000-0  25251-4 0  9993,2 54062  53.2202  27.5967 0001699 105.7406 254.3773 15.08842127 76908,6917.874,95.437,540.914,538.564,0.0
54062.0,STARLINK-5170,PAYLOAD,2024-03-08 14:14:04,15.08857943,0.0001586,53.2199,26.1071,81.2186,278.8986,5.8454e-05,6.43e-06,0.0,0 STARLINK-5170,1 54062U 22136M   24068.59310549  .00000643  00000-0  58454-4 0  9990,2 54062  53.2199  26.1071 0001586  81.2186 278.8986 15.08857943 76473,6917.826,95.436,540.788,538.593,0.0
54062.0,STARLINK-5170,PAYLOAD,2024-03-09 04:32:33,15.08840195,0.0001395,53.219,23.4324,87.0225,273.0927,4.5631e-05,4.38e-06,0.0,0 STARLINK-5170,1 54062U 22136M   24069.18928182  .00000438  00000-0  45631-4 0  9999,2 54062  53.2190  23.4324 0001395  87.0225 273.0927 15.08840195 77048,6917.88,95.438,540.71,538.78,0.0
54062.0,STARLINK-5170,PAYLOAD,2024-03-09 14:04:51,15.08856949,0.0001283,53.2179,21.6484,78.4493,281.6644,0.00023751,3.496e-05,0.0,0 STARLINK-5170,1 54062U 22136M   24069.58670651  .00003496  00000-0  23751-3 0  9993,2 54062  53.2179  21.6484 0001283  78.4493 281.6644 15.08856949 76627,6917.829,95.436,540.581,538.806,0.0
54062.0,STARLINK-5170,PAYLOAD,2024-03-10 02:47:57,15.08831637,0.0001202,53.2194,19.2669,86.3652,273.7477,3.2424e-05,2.28e-06,0.0,0 STARLINK-5170,1 54062U 22136M   24070.11664096  .00000228  00000-0  32424-4 0  9998,2 54062  53.2194  19.2669 0001202  86.3652 273.7477 15.08831637 77183,6917.906,95.438,540.602,538.939,0.0
54062.0,STARLINK-5170,PAYLOAD,2024-03-10 05:58:43,15.08840023,0.000135,53.2169,18.6711,97.4588,262.6557,6.6393e-05,7.69e-06,0.0,0 STARLINK-5170,1 54062U 22136M   24070.24911730  .00000769  00000-0  66393-4 0  9994,2 54062  53.2169  18.6711 0001350  97.4588 262.6557 15.08840023 77209,6917.88,95.438,540.679,538.811,0.0
